{"fetched_at":"2026-07-11T06:35:10.092Z","source":"https://celestrak.org/NORAD/elements/gp.php?GROUP=spire&FORMAT=JSON","constellation":"spire","records":[{"OBJECT_NAME":"LEMUR-2-HUBBLE-4","OBJECT_ID":"2025-135AP","EPOCH":"2026-07-10T06:01:18.186816","CLASSIFICATION_TYPE":"U","MEAN_MOTION":14.93675738,"ECCENTRICITY":0.00022732,"INCLINATION":97.7714,"RA_OF_ASC_NODE":304.8882,"ARG_OF_PERICENTER":176.7097,"MEAN_ANOMALY":183.4138,"EPHEMERIS_TYPE":0,"NORAD_CAT_ID":64565,"ELEMENT_SET_NO":999,"REV_AT_EPOCH":5731,"BSTAR":0.00010748354,"MEAN_MOTION_DOT":0.0000108,"MEAN_MOTION_DDOT":0},{"OBJECT_NAME":"LEMUR-2-SEJONG-2","OBJECT_ID":"2025-135BL","EPOCH":"2026-07-10T20:04:27.964992","CLASSIFICATION_TYPE":"U","MEAN_MOTION":14.96891823,"ECCENTRICITY":0.0003584,"INCLINATION":97.7702,"RA_OF_ASC_NODE":306.7002,"ARG_OF_PERICENTER":239.1639,"MEAN_ANOMALY":120.923,"EPHEMERIS_TYPE":0,"NORAD_CAT_ID":64586,"ELEMENT_SET_NO":999,"REV_AT_EPOCH":5748,"BSTAR":0.00018773,"MEAN_MOTION_DOT":0.00002096,"MEAN_MOTION_DDOT":0},{"OBJECT_NAME":"LEMUR-2-HUBBLE-5","OBJECT_ID":"2025-135BT","EPOCH":"2026-07-09T06:10:03.711360","CLASSIFICATION_TYPE":"U","MEAN_MOTION":14.94201118,"ECCENTRICITY":0.00041158,"INCLINATION":97.7734,"RA_OF_ASC_NODE":304.5681,"ARG_OF_PERICENTER":260.6132,"MEAN_ANOMALY":99.4623,"EPHEMERIS_TYPE":0,"NORAD_CAT_ID":64840,"ELEMENT_SET_NO":999,"REV_AT_EPOCH":5720,"BSTAR":0.00013039501,"MEAN_MOTION_DOT":0.0000134,"MEAN_MOTION_DDOT":0},{"OBJECT_NAME":"LEMUR-2-KARENDARRELL","OBJECT_ID":"2025-135BU","EPOCH":"2026-07-08T20:40:04.897056","CLASSIFICATION_TYPE":"U","MEAN_MOTION":15.00440878,"ECCENTRICITY":0.00117501,"INCLINATION":97.7693,"RA_OF_ASC_NODE":306.0385,"ARG_OF_PERICENTER":124.4354,"MEAN_ANOMALY":235.7982,"EPHEMERIS_TYPE":0,"NORAD_CAT_ID":64841,"ELEMENT_SET_NO":999,"REV_AT_EPOCH":5726,"BSTAR":0.00037563629,"MEAN_MOTION_DOT":0.00004672,"MEAN_MOTION_DDOT":0},{"OBJECT_NAME":"LEMUR-2-LUCILLE-ROSE","OBJECT_ID":"2025-135BV","EPOCH":"2026-07-10T13:38:37.260384","CLASSIFICATION_TYPE":"U","MEAN_MOTION":15.00454746,"ECCENTRICITY":0.0014275,"INCLINATION":97.7711,"RA_OF_ASC_NODE":307.7797,"ARG_OF_PERICENTER":203.3364,"MEAN_ANOMALY":156.7213,"EPHEMERIS_TYPE":0,"NORAD_CAT_ID":65403,"ELEMENT_SET_NO":999,"REV_AT_EPOCH":5214,"BSTAR":0.00034557,"MEAN_MOTION_DOT":0.00004297,"MEAN_MOTION_DDOT":0},{"OBJECT_NAME":"LEMUR-2-AFFIE-WAUWIE","OBJECT_ID":"2025-248C","EPOCH":"2026-07-10T11:11:57.238080","CLASSIFICATION_TYPE":"U","MEAN_MOTION":15.28120694,"ECCENTRICITY":0.00085929,"INCLINATION":45.3904,"RA_OF_ASC_NODE":348.7732,"ARG_OF_PERICENTER":227.3081,"MEAN_ANOMALY":132.7085,"EPHEMERIS_TYPE":0,"NORAD_CAT_ID":66295,"ELEMENT_SET_NO":999,"REV_AT_EPOCH":3815,"BSTAR":0.00055346916,"MEAN_MOTION_DOT":0.00015199,"MEAN_MOTION_DDOT":0},{"OBJECT_NAME":"OTTER SDM","OBJECT_ID":"2025-276N","EPOCH":"2026-07-09T04:08:36.161664","CLASSIFICATION_TYPE":"U","MEAN_MOTION":15.20009823,"ECCENTRICITY":0.00042405,"INCLINATION":97.4202,"RA_OF_ASC_NODE":263.2859,"ARG_OF_PERICENTER":282.7766,"MEAN_ANOMALY":77.2995,"EPHEMERIS_TYPE":0,"NORAD_CAT_ID":66678,"ELEMENT_SET_NO":999,"REV_AT_EPOCH":3375,"BSTAR":0.00020564658,"MEAN_MOTION_DOT":0.00004363,"MEAN_MOTION_DDOT":0},{"OBJECT_NAME":"LEMUR-2-STAS-GORBUK","OBJECT_ID":"2025-276W","EPOCH":"2026-07-10T12:13:37.749216","CLASSIFICATION_TYPE":"U","MEAN_MOTION":15.19628304,"ECCENTRICITY":0.0003441,"INCLINATION":97.4241,"RA_OF_ASC_NODE":264.6532,"ARG_OF_PERICENTER":272.2364,"MEAN_ANOMALY":87.8477,"EPHEMERIS_TYPE":0,"NORAD_CAT_ID":66686,"ELEMENT_SET_NO":999,"REV_AT_EPOCH":3395,"BSTAR":0.00016544,"MEAN_MOTION_DOT":0.00003457,"MEAN_MOTION_DDOT":0},{"OBJECT_NAME":"LEMUR-2-TEODOR","OBJECT_ID":"2025-276DG","EPOCH":"2026-07-10T03:19:48.442368","CLASSIFICATION_TYPE":"U","MEAN_MOTION":15.2130333,"ECCENTRICITY":0.00023006,"INCLINATION":97.4142,"RA_OF_ASC_NODE":264.5538,"ARG_OF_PERICENTER":92.7088,"MEAN_ANOMALY":267.4411,"EPHEMERIS_TYPE":0,"NORAD_CAT_ID":66768,"ELEMENT_SET_NO":999,"REV_AT_EPOCH":3393,"BSTAR":0.00018578518,"MEAN_MOTION_DOT":0.00004087,"MEAN_MOTION_DDOT":0},{"OBJECT_NAME":"LEMUR-2-LAILA","OBJECT_ID":"2025-276DQ","EPOCH":"2026-07-08T17:28:38.742816","CLASSIFICATION_TYPE":"U","MEAN_MOTION":15.21517643,"ECCENTRICITY":0.00028988,"INCLINATION":97.4166,"RA_OF_ASC_NODE":263.2996,"ARG_OF_PERICENTER":104.2252,"MEAN_ANOMALY":255.9306,"EPHEMERIS_TYPE":0,"NORAD_CAT_ID":66776,"ELEMENT_SET_NO":999,"REV_AT_EPOCH":3372,"BSTAR":0.00017456123,"MEAN_MOTION_DOT":0.0000386,"MEAN_MOTION_DDOT":0},{"OBJECT_NAME":"LEMUR-2-CELIJO-SB-PK","OBJECT_ID":"2025-276DW","EPOCH":"2026-07-08T17:10:02.402976","CLASSIFICATION_TYPE":"U","MEAN_MOTION":15.00241883,"ECCENTRICITY":0.00073369,"INCLINATION":97.5199,"RA_OF_ASC_NODE":259.7831,"ARG_OF_PERICENTER":80.2189,"MEAN_ANOMALY":279.9863,"EPHEMERIS_TYPE":0,"NORAD_CAT_ID":66781,"ELEMENT_SET_NO":999,"REV_AT_EPOCH":2585,"BSTAR":0.00032737877,"MEAN_MOTION_DOT":0.00004042,"MEAN_MOTION_DDOT":0},{"OBJECT_NAME":"LEMUR-2-FINNIAN","OBJECT_ID":"2025-276DX","EPOCH":"2026-07-10T00:29:46.720032","CLASSIFICATION_TYPE":"U","MEAN_MOTION":15.00579499,"ECCENTRICITY":0.00079099,"INCLINATION":97.5341,"RA_OF_ASC_NODE":261.2995,"ARG_OF_PERICENTER":19.7735,"MEAN_ANOMALY":340.3794,"EPHEMERIS_TYPE":0,"NORAD_CAT_ID":66782,"ELEMENT_SET_NO":999,"REV_AT_EPOCH":2342,"BSTAR":0.00016176101,"MEAN_MOTION_DOT":0.00001985,"MEAN_MOTION_DDOT":0},{"OBJECT_NAME":"LEMUR-2-STARLIGHT","OBJECT_ID":"2025-276DY","EPOCH":"2026-07-10T03:07:45.492096","CLASSIFICATION_TYPE":"U","MEAN_MOTION":14.99316422,"ECCENTRICITY":0.00147717,"INCLINATION":97.523,"RA_OF_ASC_NODE":260.9845,"ARG_OF_PERICENTER":62.0755,"MEAN_ANOMALY":298.1962,"EPHEMERIS_TYPE":0,"NORAD_CAT_ID":66783,"ELEMENT_SET_NO":999,"REV_AT_EPOCH":3363,"BSTAR":0.00038742581,"MEAN_MOTION_DOT":0.00004687,"MEAN_MOTION_DDOT":0},{"OBJECT_NAME":"LEMUR-2-TARTIFLETTE","OBJECT_ID":"2025-276DZ","EPOCH":"2026-07-09T03:03:48.775104","CLASSIFICATION_TYPE":"U","MEAN_MOTION":14.99294218,"ECCENTRICITY":0.00137939,"INCLINATION":97.5229,"RA_OF_ASC_NODE":260.0239,"ARG_OF_PERICENTER":72.8301,"MEAN_ANOMALY":287.4432,"EPHEMERIS_TYPE":0,"NORAD_CAT_ID":66784,"ELEMENT_SET_NO":999,"REV_AT_EPOCH":3348,"BSTAR":0.00028474227,"MEAN_MOTION_DOT":0.00003426,"MEAN_MOTION_DDOT":0},{"OBJECT_NAME":"LEMUR-2-VUKASIN","OBJECT_ID":"2025-276EA","EPOCH":"2026-07-10T10:28:43.032288","CLASSIFICATION_TYPE":"U","MEAN_MOTION":15.00520064,"ECCENTRICITY":0.00037909,"INCLINATION":97.5242,"RA_OF_ASC_NODE":261.6384,"ARG_OF_PERICENTER":68.8123,"MEAN_ANOMALY":291.3506,"EPHEMERIS_TYPE":0,"NORAD_CAT_ID":66785,"ELEMENT_SET_NO":999,"REV_AT_EPOCH":3363,"BSTAR":0.00028035656,"MEAN_MOTION_DOT":0.00003477,"MEAN_MOTION_DDOT":0},{"OBJECT_NAME":"LEMUR-2-HOTSPUR-TOM","OBJECT_ID":"2025-276EB","EPOCH":"2026-07-10T14:09:37.956960","CLASSIFICATION_TYPE":"U","MEAN_MOTION":14.99212666,"ECCENTRICITY":0.0013855,"INCLINATION":97.5222,"RA_OF_ASC_NODE":261.4122,"ARG_OF_PERICENTER":59.8577,"MEAN_ANOMALY":300.4018,"EPHEMERIS_TYPE":0,"NORAD_CAT_ID":66786,"ELEMENT_SET_NO":999,"REV_AT_EPOCH":3363,"BSTAR":0.00029732,"MEAN_MOTION_DOT":0.00003572,"MEAN_MOTION_DDOT":0}]}
